OSCAR 7 (AO-7)          
1 07530U 74089B   19238.89266801 -.00000030  00000-0  96170-4 0  9997
2 07530 101.7504 205.8610 0011799 212.5171 204.0114 12.53639543 49199
UOSAT 2 (UO-11)         
1 14781U 84021B   19239.52957423  .00000035  00000-0  10430-4 0  9997
2 14781  97.6083 260.9331 0010064  90.6557 269.5810 14.83102083909114
LUSAT (LO-19)           
1 20442U 90005G   19239.07715911 -.00000030  00000-0  52335-5 0  9998
2 20442  98.6517 180.9736 0010875 309.0766  50.9449 14.32931116546317
ITAMSAT (IO-26)         
1 22826U 93061D   19238.96226005 -.00000010  00000-0  14036-4 0  9992
2 22826  98.9020 229.1775 0009575 140.4587 219.7295 14.30398723351800
RADIO ROSTO (RS-15)     
1 23439U 94085A   19238.87201497 -.00000055  00000-0 -35127-3 0  9991
2 23439  64.8197   4.2497 0145847  99.8212 261.9214 11.27568464 15694
JAS-2 (FO-29)           
1 24278U 96046B   19239.79783608 -.00000015  00000-0  18367-4 0  9996
2 24278  98.5475  23.7222 0351207  58.3474 305.1423 13.53093032137288
TECHSAT 1B (GO-32)      
1 25397U 98043D   19238.84614917 -.00000027  00000-0  75502-5 0  9997
2 25397  98.6913 178.1629 0001399 146.1833 213.9434 14.23669388 97716
ISS (ZARYA)             
1 25544U 98067A   19240.07447917 -.00000239  00000-0  38507-5 0  9998
2 25544  51.6449   4.6607 0007801 335.6610   6.2274 15.50386000186402
PCSAT (NO-44)           
1 26931U 01043C   19239.48474012 -.00000046  00000-0  14107-4 0  9991
2 26931  67.0511 183.5794 0007490 273.5594  86.4651 14.30550283934956
SAUDISAT 1C (SO-50)     
1 27607U 02058C   19238.94775157 -.00000059  00000-0  12667-4 0  9996
2 27607  64.5544 197.8531 0078379 243.1823 116.1249 14.75566704897129
CUTE-1 (CO-55)          
1 27844U 03031E   19239.02204282  .00000038  00000-0  36917-4 0  9997
2 27844  98.6847 246.1998 0009659 183.6396 176.4713 14.22191092838147
CUBESAT XI-IV (CO-57)   
1 27848U 03031J   19239.80804957  .00000028  00000-0  32455-4 0  9994
2 27848  98.6925 247.4890 0009366 193.1570 166.9364 14.21784822838108
MOZHAYETS 4 (RS-22)     
1 27939U 03042A   19239.76573250  .00000036  00000-0  15149-4 0  9991
2 27939  98.0506  14.2541 0012753 200.0130 160.0587 14.66798363850813
CUBESAT XI-V            
1 28895U 05043F   19238.96426253  .00000074  00000-0  22938-4 0  9993
2 28895  97.9686  19.3579 0017933 130.3031 229.9742 14.63684533737619
CUTE-1.7+APD II (CO-65) 
1 32785U 08021C   19238.86658509  .00000149  00000-0  21633-4 0  9999
2 32785  97.5525 235.3273 0014098  39.1105 321.1129 14.88334526613975
DELFI-C3 (DO-64)        
1 32789U 08021G   19238.93803648  .00000931  00000-0  66079-4 0  9999
2 32789  97.4593 286.4971 0010720 244.4693 115.5426 15.07065597617291
SEEDS II (CO-66)        
1 32791U 08021J   19238.96980627  .00000236  00000-0  29248-4 0  9993
2 32791  97.5296 241.4666 0013708  14.0592 346.1006 14.90854891614438
YUBILEINY (RS-30)       
1 32953U 08025A   19239.74601937  .00000020  00000-0  75656-4 0  9993
2 32953  82.5006 101.2037 0019453 339.0157  21.0122 12.43091042511011
KKS-1 (KISEKI)          
1 33499U 09002H   19238.91549743  .00000053  00000-0  15807-4 0  9997
2 33499  98.3466  79.8180 0009016 354.7142   5.3969 14.75456784569004
SWISSCUBE               
1 35932U 09051B   19239.06030950  .00000080  00000-0  29252-4 0  9996
2 35932  98.5948  47.0895 0006757 320.0428  40.0270 14.56302755526873
BEESAT-1                
1 35933U 09051C   19239.47131399  .00000070  00000-0  26873-4 0  9996
2 35933  98.5970  49.3017 0005208 335.9618  24.1335 14.56389766527048
ITUPSAT1                
1 35935U 09051E   19238.95058483  .00000059  00000-0  24753-4 0  9994
2 35935  98.6079  48.9979 0007465 331.6379  28.4410 14.55547128526684
XIWANG-1 (HOPE-1)       
1 36122U 09072B   19239.12799195 -.00000040  00000-0  45558-5 0  9996
2 36122 100.0745 238.2491 0006955 182.6097 177.4987 13.16350592466015
JUGNU                   
1 37839U 11058B   19239.46799535  .00000317  00000-0  27269-4 0  9998
2 37839  19.9608 271.6479 0019018  16.8911 123.9469 14.12656496407139
SRMSAT                  
1 37841U 11058D   19239.54123628  .00000307  00000-0  23555-4 0  9997
2 37841  19.9729 329.4238 0011687 244.2768 229.4367 14.10637064406565
M-CUBED & EXP-1 PRIME   
1 37855U 11061F   19239.78110973  .00000195  00000-0  18204-4 0  9991
2 37855 101.7100 171.3536 0173004 228.9940 129.6203 15.05544331427327
STRAND-1                
1 39090U 13009E   19239.08993705  .00000026  00000-0  24418-4 0  9990
2 39090  98.4830  83.8651 0010390  83.3158 276.9210 14.35094328340347
SOMP                    
1 39134U 13015E   19239.22361863  .00000673  00000-0  39973-4 0  9996
2 39134  64.8634 155.1495 0034687 292.0594  67.6850 15.20269032351160
BEESAT-3                
1 39135U 13015F   19239.26938523  .00000571  00000-0  37997-4 0  9995
2 39135  64.8693 174.2836 0030705 305.2695  54.5559 15.17558588350807
BEESAT-2                
1 39136U 13015G   19239.26688241  .00000583  00000-0  39244-4 0  9995
2 39136  64.8682 178.3133 0022850 304.4706  55.4261 15.16973875350727
ZACUBE-1 (TSHEPISOSAT)  
1 39417U 13066B   19239.15434979  .00000132  00000-0  22869-4 0  9993
2 39417  97.5625 248.7527 0059348 164.7807 195.5210 14.81138298311325
GOMX-1                  
1 39430U 13066Q   19239.76892383  .00000105  00000-0  27883-4 0  9993
2 39430  97.7519 191.7259 0152096  33.6978 327.3786 14.59273754306824
CUBEBUG-2 (LO-74)       
1 39440U 13066AA  19238.90523393  .00000108  00000-0  22177-4 0  9995
2 39440  97.6055 233.2675 0079167 219.3079 140.2369 14.75876411310185
FUNCUBE-1 (AO-73)       
1 39444U 13066AE  19239.52161440  .00000159  00000-0  25826-4 0  9999
2 39444  97.5603 251.1122 0058674 157.1697 203.2146 14.81961983310277
UWE-3                   
1 39446U 13066AG  19239.80614965  .00000132  00000-0  24150-4 0  9997
2 39446  97.5832 241.2128 0069715 189.9991 169.9838 14.78411436309629
SPROUT                  
1 39770U 14029E   19239.86571591  .00000395  00000-0  49780-4 0  9997
2 39770  97.8879 342.7181 0008172 206.5662 153.5134 14.87396325285260
UNISAT-6                
1 40012U 14033C   19239.52866854  .00000109  00000-0  23789-4 0  9999
2 40012  97.7484 103.1005 0057079 231.7767 127.8296 14.73998238278971
DUCHIFAT-1              
1 40021U 14033M   19239.35536235  .00000230  00000-0  29275-4 0  9998
2 40021  97.9225 164.1789 0012792 174.0574 186.0798 14.90664492281924
QB50P1                  
1 40025U 14033R   19239.52351475  .00000176  00000-0  24760-4 0  9995
2 40025  97.9033 159.0904 0012142 183.2201 176.8940 14.88969819281716
NUDT-PHONESAT           
1 40900U 15049B   19239.82514066  .00001095  00000-0  49608-4 0  9994
2 40900  97.4375 248.4760 0011290 304.6763 179.5765 15.22957178218337
ZDPS 2A                 
1 40901U 15049C   19239.76272191  .00000365  00000-0  21408-4 0  9995
2 40901  97.4611 244.5766 0012383 325.8558 146.0525 15.17795168217868
ZDPS 2B                 
1 40902U 15049D   19239.91884096  .00000706  00000-0  38377-4 0  9998
2 40902  97.4552 242.1737 0012495 322.9583  99.5797 15.17636470217868
XW-2A                   
1 40903U 15049E   19239.74055478  .00000874  00000-0  22495-4 0  9994
2 40903  97.3330 282.8855 0011910 249.7721 222.4133 15.42012814221049
KAITUO 1A               
1 40904U 15049F   19239.79897311  .00000489  00000-0  29365-4 0  9995
2 40904  97.4691 240.6118 0013712 331.2805 152.8346 15.15406402217617
2015-049G               
1 40905U 15049G   19239.72373628  .00000406  00000-0  25684-4 0  9998
2 40905  97.4729 238.0176 0014566 325.7846 120.0286 15.14326904217477
XW-2C                   
1 40906U 15049H   19239.78549944  .00000188  00000-0  13354-4 0  9999
2 40906  97.4692 240.7083 0013849 321.9426 162.6563 15.15724572217619
XW-2D                   
1 40907U 15049J   19239.87240288  .00000323  00000-0  20296-4 0  9993
2 40907  97.4683 240.4739 0012993 318.7498  89.6255 15.15916763217641
LILACSAT-2              
1 40908U 15049K   19239.72512715  .00000370  00000-0  24050-4 0  9999
2 40908  97.4806 239.0906 0014986 326.0599 119.9231 15.13833845217409
XW-2F                   
1 40910U 15049M   19239.78121850  .00000376  00000-0  22185-4 0  9997
2 40910  97.4642 242.4814 0013403 310.8514 171.5023 15.17375234217643
XW-2B                   
1 40911U 15049N   19239.72284943  .00000317  00000-0  20043-4 0  9991
2 40911  97.4692 240.9866 0012934 320.4915 156.4765 15.15846233217510
KAITUO 1B               
1 40912U 15049P   19239.88966916  .00000484  00000-0  25846-4 0  9997
2 40912  97.4505 246.3369 0013243 289.7813 119.4229 15.19697633217976
TIANWANG 1C (TW-1C)     
1 40926U 15051B   19239.80168215  .00007350  00000-0  10383-3 0  9991
2 40926  97.1308 285.9145 0009844 110.0866 340.5267 15.56799910221062
TIANWANG 1A (TW-1A)     
1 40928U 15051D   19239.82524443  .00001728  00000-0  43737-4 0  9997
2 40928  97.1423 269.5726 0011401 169.1475 296.8593 15.41058596219972
LAPAN-A2                
1 40931U 15052B   19237.90531972  .00000725  00000-0  11998-4 0  9994
2 40931   5.9998 290.1771 0012717  39.2195 320.8951 14.76611989211366
E-ST@R-II               
1 41459U 16025D   19239.85817081  .00001969  00000-0  10326-3 0  9999
2 41459  98.1017 329.8920 0168862 122.5907 239.1724 15.05584283183103
AAUSAT 4                
1 41460U 16025E   19239.74556095  .00001182  00000-0  62534-4 0  9990
2 41460  98.0956 331.1943 0158564 114.8764 246.9039 15.07507150183228
NUSAT-1 (FRESCO)        
1 41557U 16033B   19239.82165200  .00000770  00000-0  31488-4 0  9995
2 41557  97.4169 326.9152 0015114  54.7227 305.5424 15.27322105180793
BEESAT-4                
1 41619U 16040W   19239.15098196  .00000840  00000-0  38364-4 0  9995
2 41619  97.3621 300.0645 0012585 133.8145 226.4134 15.23240842164436
CAS-2T & KS-1Q          
1 41847U 16066G   19238.70398229 -.00000007  00000-0  92873-5 0  9998
2 41847  98.7004 280.5081 0366426  29.7862 332.3644 14.38000509146915
NAYIF-1 (EO-88)         
1 42017U 17008BX  19239.15802839  .00000872  00000-0  37094-4 0  9994
2 42017  97.3983 305.5231 0004547 289.6092  70.4655 15.25653016140512
MAX VALIER SAT          
1 42778U 17036P   19239.15035801  .00000520  00000-0  25694-4 0  9999
2 42778  97.3488 295.2677 0011831 348.7752  11.3218 15.22096083120800
RADFXSAT (FOX-1B)       
1 43017U 17073E   19239.77560411  .00000290  00000-0  28759-4 0  9994
2 43017  97.7205 158.3919 0256653 290.3678  67.0133 14.78611189 95612
FOX-1D (AO-92)          
1 43137U 18004AC  19239.18482299  .00000576  00000-0  27107-4 0  9997
2 43137  97.4827 306.8171 0009773  22.7858 337.3811 15.23547413 90078
ES'HAIL 2               
1 43700U 18090A   19239.81170187  .00000130  00000-0  00000+0 0  9992
2 43700   0.0213 142.4770 0001514  39.2651 112.0380  1.00271883  2999
FOX-1CLIFF (AO-95)      
1 43770U 18099N   19239.18748518 -.00000128  00000-0 -64877-5 0  9994
2 43770  97.7409 310.1549 0016115 101.5777 258.7253 14.94795494 39802
ITASAT 1                
1 43786U 18099AE  19239.45479663 -.00000166  00000-0 -98381-5 0  9992
2 43786  97.7424 310.6235 0016710  95.3775 264.9353 14.95162087 39854
JY1SAT (JO-97)          
1 43803U 18099AX  19239.83485311  .00000055  00000-0  10260-4 0  9995
2 43803  97.7384 310.8993 0016819  94.7460 265.5682 14.95302113 39900
PSAT2 (NO-104)          
1 44354U 19036R   19239.84383823  .00011889  00000-0  18353-3 0  9992
2 44354  28.5303 147.3728 0386400  57.7376 306.0056 14.97893991  9516
BRICSAT2 (NO-103)       
1 44355U 19036S   19238.90230702  .00019777  00000-0  30847-3 0  9992
2 44355  28.5306 153.3829 0383689  48.0023 315.2593 14.98463270  9384
JAISAT-1                
1 44419U 19038F   19239.10239991  .00000550  00000-0  35354-4 0  9995
2 44419  97.4947 200.0749 0023549  70.1597 290.2170 15.12285601  7951
